[{"OBJECT_NAME":"ONEWEB-0050","OBJECT_ID":"2020-020AF","EPOCH":"2026-03-09T21:25:12.459648","MEAN_MOTION":14.90004194,"ECCENTRICITY":0.00029804,"INCLINATION":88.9205,"RA_OF_ASC_NODE":246.7269,"ARG_OF_PERICENTER":19.3816,"MEAN_ANOMALY":340.7526,"EPHEMERIS_TYPE":0,"CLASSIFICATION_TYPE":"U","NORAD_CAT_ID":45453,"ELEMENT_SET_NO":999,"REV_AT_EPOCH":32559,"BSTAR":0.00024442233,"MEAN_MOTION_DOT":2.377e-5,"MEAN_MOTION_DDOT":0},{"OBJECT_NAME":"FENGYUN 1C DEB","OBJECT_ID":"1999-025CGY","EPOCH":"2026-03-07T20:13:57.746208","MEAN_MOTION":14.4645493,"ECCENTRICITY":0.02105468,"INCLINATION":98.2654,"RA_OF_ASC_NODE":85.1829,"ARG_OF_PERICENTER":241.0026,"MEAN_ANOMALY":116.9921,"EPHEMERIS_TYPE":0,"CLASSIFICATION_TYPE":"U","NORAD_CAT_ID":31810,"ELEMENT_SET_NO":999,"REV_AT_EPOCH":65644,"BSTAR":0.00064237499,"MEAN_MOTION_DOT":2.991e-5,"MEAN_MOTION_DDOT":0}]
